[{"OBJECT_NAME":"SENTINEL-3A","OBJECT_ID":"2016-011A","EPOCH":"2026-03-09T21:54:08.177760","MEAN_MOTION":14.26741759,"ECCENTRICITY":0.00012494,"INCLINATION":98.6228,"RA_OF_ASC_NODE":137.6961,"ARG_OF_PERICENTER":99.0654,"MEAN_ANOMALY":261.0668,"EPHEMERIS_TYPE":0,"CLASSIFICATION_TYPE":"U","NORAD_CAT_ID":41335,"ELEMENT_SET_NO":999,"REV_AT_EPOCH":52390,"BSTAR":8.2696554e-5,"MEAN_MOTION_DOT":1.57e-6,"MEAN_MOTION_DDOT":0},{"OBJECT_NAME":"CZ-4B R\/B","OBJECT_ID":"1999-057C","EPOCH":"2026-03-09T17:33:39.955680","MEAN_MOTION":14.38345949,"ECCENTRICITY":0.00964743,"INCLINATION":98.7358,"RA_OF_ASC_NODE":119.3877,"ARG_OF_PERICENTER":151.3357,"MEAN_ANOMALY":209.3181,"EPHEMERIS_TYPE":0,"CLASSIFICATION_TYPE":"U","NORAD_CAT_ID":25942,"ELEMENT_SET_NO":999,"REV_AT_EPOCH":38129,"BSTAR":0.00015731364,"MEAN_MOTION_DOT":4.58e-6,"MEAN_MOTION_DDOT":0}]
